NORAD_CAT_ID,OBJECT_NAME,OBJECT_TYPE,EPOCH,MEAN_MOTION,ECCENTRICITY,INCLINATION,RA_OF_ASC_NODE,ARG_OF_PERICENTER,MEAN_ANOMALY,BSTAR,MEAN_MOTION_DOT,MEAN_MOTION_DDOT,TLE_LINE0,TLE_LINE1,TLE_LINE2,SEMIMAJOR_AXIS,PERIOD,APOGEE,PERIGEE,DECAYED
52536.0,STARLINK-3964,PAYLOAD,2022-07-17 22:00:00,15.088613699999998,0.0001978,53.2177,343.194,48.252,166.8783,-0.0042479,-0.00067303,0.0,0 STARLINK-3964,1 52536U 22051D   22198.91667824 -.00067303  00000-0 -42479-2 0  9995,2 52536  53.2177 343.1940 0001978  48.2520 166.8783 15.08861370  1300,6917.815,95.436,541.048,538.312,0.0
52536.0,STARLINK-3964,PAYLOAD,2022-07-18 14:00:01,15.08837479,0.0001809,53.2185,340.2048,49.9749,188.2978,-0.00091811,-0.00014869,0.0,0 STARLINK-3964,1 52536U 22051D   22199.58334491 -.00014869  00000-0 -91811-3 0  9994,2 52536  53.2185 340.2048 0001809  49.9749 188.2978 15.08837479  1307,6917.888000000001,95.438,541.005,538.502,0.0
52536.0,STARLINK-3964,PAYLOAD,2022-07-18 16:00:00,15.08832888,0.0001869,53.2184,339.8311,48.2362,282.9342,-0.00044074,-7.294e-05,0.0,0 STARLINK-3964,1 52536U 22051D   22199.66667824 -.00007294  00000-0 -44074-3 0  9995,2 52536  53.2184 339.8311 0001869  48.2362 282.9342 15.08832888 10724,6917.901999999999,95.438,541.06,538.474,0.0
52536.0,STARLINK-3964,PAYLOAD,2022-07-18 22:00:00,15.08845259,0.0001835,53.2182,338.709,45.0636,204.7908,-0.001978,-0.00031635,0.0,0 STARLINK-3964,1 52536U 22051D   22199.91667824 -.00031635  00000-0 -19780-2 0  9994,2 52536  53.2182 338.7090 0001835  45.0636 204.7908 15.08845259  1306,6917.864000000001,95.437,540.999,538.46,0.0
52536.0,STARLINK-3964,PAYLOAD,2022-07-19 14:00:01,15.08849987,0.0001745,53.2184,335.716,46.9864,226.0594,-0.00049141,-8.103e-05,0.0,0 STARLINK-3964,1 52536U 22051D   22200.58334491 -.00008103  00000-0 -49141-3 0  9990,2 52536  53.2184 335.7160 0001745  46.9864 226.0594 15.08849987 10867,6917.85,95.437,540.922,538.508,0.0
52536.0,STARLINK-3964,PAYLOAD,2022-07-19 22:00:00,15.08859715,0.0001868,53.2174,334.2161,43.1858,241.4479,-0.0022145,-0.00035379,0.0,0 STARLINK-3964,1 52536U 22051D   22200.91667824 -.00035379  00000-0 -22145-2 0  9995,2 52536  53.2174 334.2161 0001868  43.1858 241.4479 15.08859715  1301,6917.82,95.436,540.977,538.393,0.0
52536.0,STARLINK-3964,PAYLOAD,2022-07-20 06:00:00,15.08820939,0.0001699,53.2181,332.7219,51.6617,244.6231,0.0041776,0.00066794,0.0,0 STARLINK-3964,1 52536U 22051D   22201.25001157  .00066794  00000-0  41776-2 0  9998,2 52536  53.2181 332.7219 0001699  51.6617 244.6231 15.08820939 10964,6917.939,95.439,540.979,538.628,0.0
52536.0,STARLINK-3964,PAYLOAD,2022-07-20 14:00:01,15.08881896,0.0001768,53.2181,331.227,48.2463,259.6337,-0.0030166,-0.00048033,0.0,0 STARLINK-3964,1 52536U 22051D   22201.58334491 -.00048033  00000-0 -30166-2 0  9993,2 52536  53.2181 331.2270 0001768  48.2463 259.6337 15.08881896  1303,6917.752,95.435,540.84,538.394,0.0
52536.0,STARLINK-3964,PAYLOAD,2022-07-20 22:00:01,15.08857248,0.0001727,53.2176,329.7307,42.8025,276.7566,-0.0042093999999999,-0.00066693,0.0,0 STARLINK-3964,1 52536U 22051D   22201.91668981 -.00066693  00000-0 -42094-2 0  9999,2 52536  53.2176 329.7307 0001727  42.8025 276.7566 15.08857248 11061,6917.828,95.436,540.887,538.498,0.0
52536.0,STARLINK-3964,PAYLOAD,2022-07-21 14:00:01,15.08804806,0.0001723,53.2176,326.7381,47.5583,295.1273,-0.00080098,-0.00013001,0.0,0 STARLINK-3964,1 52536U 22051D   22202.58335648 -.00013001  00000-0 -80098-3 0  9996,2 52536  53.2176 326.7381 0001723  47.5583 295.1273 15.08804806  1305,6917.988,95.44,541.045,538.661,0.0
52536.0,STARLINK-3964,PAYLOAD,2022-07-21 22:00:00,15.08813787,0.0001744,53.2171,325.2418,44.4737,309.6901,-0.00064244,-0.00010491,0.0,0 STARLINK-3964,1 52536U 22051D   22202.91667824 -.00010491  00000-0 -64244-3 0  9992,2 52536  53.2171 325.2418 0001744  44.4737 309.6901 15.08813787  1302,6917.9609999999975,95.439,541.0319999999998,538.619,0.0
52536.0,STARLINK-3964,PAYLOAD,2022-07-22 06:00:00,15.08788291,0.0001623,53.2171,323.744,52.4727,313.2623,0.0043626,0.00069731,0.0,0 STARLINK-3964,1 52536U 22051D   22203.25001157  .00069731  00000-0  43626-2 0  9990,2 52536  53.2171 323.7440 0001623  52.4727 313.2623 15.08788291 11263,6918.038000000001,95.441,541.026,538.781,0.0
52536.0,STARLINK-3964,PAYLOAD,2022-07-22 22:00:00,15.08887588,0.0001831999999999,53.2168,320.7526,45.9043,342.996,-0.0023945999999999,-0.00038246,0.0,0 STARLINK-3964,1 52536U 22051D   22203.91667824 -.00038246  00000-0 -23946-2 0  9994,2 52536  53.2168 320.7526 0001832  45.9043 342.9960 15.08887588 11364,6917.735,95.435,540.867,538.3330000000002,0.0
52536.0,STARLINK-3964,PAYLOAD,2022-07-23 14:00:01,15.08834394,0.0001959,53.217,317.76,48.8918,3.3221,-0.00078085,-0.00012692,0.0,0 STARLINK-3964,1 52536U 22051D   22204.58335648 -.00012692  00000-0 -78085-3 0  9996,2 52536  53.2170 317.7600 0001959  48.8918   3.3221 15.08834394  1307,6917.898,95.438,541.118,538.4069999999998,0.0
52536.0,STARLINK-3964,PAYLOAD,2022-07-23 22:00:00,15.08855771,0.0001948,53.217,316.2632,46.6164,17.1232,-0.00098245,-0.00015897,0.0,0 STARLINK-3964,1 52536U 22051D   22204.91667824 -.00015897  00000-0 -98245-3 0  9997,2 52536  53.2170 316.2632 0001948  46.6164  17.1232 15.08855771  1300,6917.831999999999,95.437,541.045,538.35,0.0
52536.0,STARLINK-3964,PAYLOAD,2022-07-24 14:00:01,15.08866163,0.0001975,53.2173,313.2708,47.7553,39.1912,-0.0033929,-0.00053922,0.0,0 STARLINK-3964,1 52536U 22051D   22205.58334491 -.00053922  00000-0 -33929-2 0  9990,2 52536  53.2173 313.2708 0001975  47.7553  39.1912 15.08866163  1304,6917.8,95.436,541.0319999999998,538.299,0.0
52536.0,STARLINK-3964,PAYLOAD,2022-07-24 22:00:00,15.08848962,0.0001906999999999,53.2174,311.7739,44.723,53.8232,-0.0013859999999999,-0.00022284,0.0,0 STARLINK-3964,1 52536U 22051D   22205.91667824 -.00022284  00000-0 -13860-2 0  9995,2 52536  53.2174 311.7739 0001907  44.7230  53.8232 15.08848962 11661,6917.853,95.437,541.0369999999998,538.399,0.0
52536.0,STARLINK-3964,PAYLOAD,2022-07-25 14:00:01,15.08857777,0.0001956999999999,53.2178,308.7818,45.5606,76.1781,-0.002466,-0.0003933999999999,0.0,0 STARLINK-3964,1 52536U 22051D   22206.58334491 -.00039340  00000-0 -24660-2 0  9991,2 52536  53.2178 308.7818 0001957  45.5606  76.1781 15.08857777  1301,6917.826,95.436,541.045,538.337,0.0
52536.0,STARLINK-3964,PAYLOAD,2022-07-25 22:00:00,15.08845074,0.0001855,53.2179,307.2849,42.9165,90.4229,-0.0022436,-0.00035823,0.0,0 STARLINK-3964,1 52536U 22051D   22206.91667824 -.00035823  00000-0 -22436-2 0  9998,2 52536  53.2179 307.2849 0001855  42.9165  90.4229 15.08845074  1301,6917.865,95.437,541.013,538.447,0.0
52536.0,STARLINK-3964,PAYLOAD,2022-07-26 06:00:00,15.08821156,0.0001745,53.2183,305.7875,48.8006,96.1235,0.0017749,0.00028058,0.0,0 STARLINK-3964,1 52536U 22051D   22207.25001157  .00028058  00000-0  17749-2 0  9998,2 52536  53.2183 305.7875 0001745  48.8006  96.1235 15.08821156 11862,6917.938,95.439,541.01,538.596,0.0
52536.0,STARLINK-3964,PAYLOAD,2022-07-26 14:00:01,15.08832829,0.0001927,53.2182,304.293,43.5859,112.9255,4.9982e-05,5.07e-06,0.0,0 STARLINK-3964,1 52536U 22051D   22207.58334491  .00000507  00000-0  49982-4 0  9999,2 52536  53.2182 304.2930 0001927  43.5859 112.9255 15.08832829  1303,6917.901999999999,95.438,541.1,538.434,0.0
52536.0,STARLINK-3964,PAYLOAD,2022-07-26 22:00:00,15.088564600000002,0.0001851,53.2181,302.796,43.514,124.5811,-0.0018803,-0.00030102,0.0,0 STARLINK-3964,1 52536U 22051D   22207.91667824 -.00030102  00000-0 -18803-2 0  9997,2 52536  53.2181 302.7960 0001851  43.5140 124.5811 15.08856460  1301,6917.83,95.437,540.976,538.415,0.0
52536.0,STARLINK-3964,PAYLOAD,2022-07-27 14:00:01,15.08844529,0.0001916,53.2182,299.8044,43.2901,148.0143,0.00043391,6.625e-05,0.0,0 STARLINK-3964,1 52536U 22051D   22208.58334491  .00006625  00000-0  43391-3 0  9994,2 52536  53.2182 299.8044 0001916  43.2901 148.0143 15.08844529  1307,6917.8669999999975,95.437,541.057,538.406,0.0
52536.0,STARLINK-3964,PAYLOAD,2022-07-27 16:00:00,15.088327,0.0001932,53.2182,299.4305,42.2608,241.9497,0.0025169,0.00039988,0.0,0 STARLINK-3964,1 52536U 22051D   22208.66667824  .00039988  00000-0  25169-2 0  9992,2 52536  53.2182 299.4305 0001932  42.2608 241.9497 15.08832700 12084,6917.903,95.438,541.104,538.431,0.0
52536.0,STARLINK-3964,PAYLOAD,2022-07-27 22:00:00,15.08882715,0.0001776,53.2179,298.3071,43.0217,159.8835,-0.0048089,-0.00076104,0.0,0 STARLINK-3964,1 52536U 22051D   22208.91667824 -.00076104  00000-0 -48089-2 0  9999,2 52536  53.2179 298.3071 0001776  43.0217 159.8835 15.08882715  1306,6917.75,95.435,540.8430000000002,538.386,0.0
52536.0,STARLINK-3964,PAYLOAD,2022-07-28 08:00:01,15.08847838,0.0001652,53.2181,296.4366,45.613,261.7978,-0.00090984,-0.00014742,0.0,0 STARLINK-3964,1 52536U 22051D   22209.33334491 -.00014742  00000-0 -90984-3 0  9999,2 52536  53.2181 296.4366 0001652  45.6130 261.7978 15.08847838 12186,6917.856,95.437,540.864,538.5790000000002,0.0
52536.0,STARLINK-3964,PAYLOAD,2022-07-28 14:00:01,15.08826305,0.0001837,53.2178,295.3158,41.1958,184.9149,0.00085314,0.00013311,0.0,0 STARLINK-3964,1 52536U 22051D   22209.58334491  .00013311  00000-0  85314-3 0  9996,2 52536  53.2178 295.3158 0001837  41.1958 184.9149 15.08826305  1307,6917.922,95.438,541.058,538.516,0.0
52536.0,STARLINK-3964,PAYLOAD,2022-07-28 22:00:00,15.08867058,0.0001746,53.2174,293.8184,43.3034,194.3895,-0.0046681999999999,-0.00073876,0.0,0 STARLINK-3964,1 52536U 22051D   22209.91667824 -.00073876  00000-0 -46682-2 0  9990,2 52536  53.2174 293.8184 0001746  43.3034 194.3895 15.08867058  1306,6917.7980000000025,95.436,540.871,538.455,0.0
52536.0,STARLINK-3964,PAYLOAD,2022-07-29 14:00:01,15.08804771,0.0001929,53.217,290.8272,44.5727,216.2874,0.0012090999999999,0.00018989,0.0,0 STARLINK-3964,1 52536U 22051D   22210.58334491  .00018989  00000-0  12091-2 0  9995,2 52536  53.2170 290.8272 0001929  44.5727 216.2874 15.08804771 12375,6917.988,95.44,541.188,538.519,0.0
